#aV2010 11 17  0  0   .00000000      96 DD+AD WGS84 FIT  NGA
## 1610 259200.00000000   900.00000000 55517  .0000000000000
+   32     1  2  3  4  5  6  7  8  9 10 11 12 13 14 15 16 17
+         18 19 20 21 22 23 24 25 26 27 28 29 30 31 32  0  0
+          0  0  0  0  0  0  0  0  0  0  0  0  0  0  0  0  0
+          0  0  0  0  0  0  0  0  0  0  0  0  0  0  0  0  0
+          0  0  0  0  0  0  0  0  0  0  0  0  0  0  0  0  0
++         0  0  0  0  0  0  0  0  0  0  0  0  0  0  0  0  0
++         0  0  0  0  0  0  0  0  0  0  0  0  0  0  0  0  0
++         0  0  0  0  0  0  0  0  0  0  0  0  0  0  0  0  0
++         0  0  0  0  0  0  0  0  0  0  0  0  0  0  0  0  0
++         0  0  0  0  0  0  0  0  0  0  0  0  0  0  0  0  0
%c cc cc ccc ccc cccc cccc cccc cccc ccccc ccccc ccccc ccccc
%c cc cc ccc ccc cccc cccc cccc cccc ccccc ccccc ccccc ccccc
%f  0.0000000  0.000000000  0.00000000000  0.000000000000000
%f  0.0000000  0.000000000  0.00000000000  0.000000000000000
%i    0    0    0    0      0      0      0      0         0
%i    0    0    0    0      0      0      0      0         0
/*      NGA, ST. LOUIS,MO.                                  
/*   EPHEMERIS COMPUTED FROM  3 DAYS OF DATA                
/* CCCCCCCCCCCCCCCCCCCCCCCCCCCCCCCCCCCCCCCCCCCCCCCCCCCCCCCCC
/* CCCCCCCCCCCCCCCCCCCCCCCCCCCCCCCCCCCCCCCCCCCCCCCCCCCCCCCCC
*  2010 11 17 10 30   .00000000                                                 
P  1  17814.985484  -1775.209121  19543.089243   -183.001973                    
V  1  17468.211234  17935.661972 -14088.737548      -.035763                    
P  2 -20958.752690  13329.966485   8717.271423    302.931289                    
V  2 -11793.932772     -2.956488 -28831.048876       .024664                    
P  3  10168.347588 -21882.146324  10322.334295    636.428789                    
V  3   2205.444032  14192.675347  27205.431040       .052294                    
P  4 -25941.498233   6361.627209  -1782.891381    221.799186                    
V  4   1022.501506  -3629.985708 -30919.320392       .096775                    
P  5  -8096.440265  13229.635830  21538.817409    -68.757617                    
V  5 -20261.207120 -18458.842444   3814.494824      -.059744                    
P  6  13791.366069 -17858.215794  14027.746660    417.830694                    
V  6   -390.263098  17905.494016  23629.267764      -.122871                    
P  7 -17476.622521  -7955.265919  18439.254998      -.551988                    
V  7  22025.093856  -7707.167936  17355.361604       .003610                    
P  8 -24980.919614  -1068.323299   9754.481532      6.945726                    
V  8  11642.620243  -3680.452544  28910.872559       .000046                    
P  9  -2730.823551  16014.709432 -21553.078012     43.039337                    
V  9 -24930.322985   7573.208244   9029.522685       .023890                    
P 10 -19144.112137   -499.071673  18355.822456    -58.117544                    
V 10 -15774.954634 -17632.578416 -16395.026359      -.009787                    
P 11  -3329.425294 -17156.005949 -20242.028907   -104.555447                    
V 11  22546.404637 -11877.265022   6819.946874      -.028836                    
P 12   7445.928510  20990.586603 -14549.656475    -53.103583                    
V 12 -14464.512035 -11584.284193 -23908.767523       .035165                    
P 13  -7501.054180 -17029.927877  18800.208796    291.792795                    
V 13   8284.434102 -22649.057709 -17136.002275      -.011071                    
P 14  15402.827529  -2129.394441 -21349.917448    107.947293                    
V 14  -7146.390015  26505.907894  -7874.676566       .033032                    
P 15  -3652.718012  26079.234200  -2802.040616   -182.301886                    
V 15  -3898.933413   2833.505798  31377.881325       .044926                    
P 16  12670.573648  -8324.738923  21859.351037   -126.829147                    
V 16  19402.678244  19653.953139  -3495.178028      -.032359                    
P 17 -15392.254937   -667.161087 -21505.787289    177.482720                    
V 17   6611.417620 -26794.421566  -4099.381426       .010024                    
P 18  20392.245697  17045.437234  -2852.182930    105.178568                    
V 18    519.520586   5112.718585  30668.783089       .021630                    
P 19   7146.501296 -25353.026250  -1447.164772    -83.943049                    
V 19   3613.639853   -786.770553  31830.419730      -.033837                    
P 20  -9960.737981 -21220.690402 -12688.697393     49.525866                    
V 20  13826.937476   8395.600619 -25104.142306      -.002350                    
P 21  19619.901086   7475.226389  16979.045520   -102.971605                    
V 21 -19415.953592   7469.005609  18947.946338      -.027239                    
P 22  21649.635199   7528.133827 -13328.032048    158.756173                    
V 22  10241.146229  14154.610025  24226.041428      -.007347                    
P 23  -1623.424578 -24095.761484  10658.429791    343.098812                    
V 23   5772.208070 -12629.129283 -27991.614554      -.020625                    
P 24   8277.971012 -16190.385847 -19225.753840    339.629982                    
V 24  24319.855063  -4272.197815  14288.144322       .033616                    
P 25  17506.299204  19609.735656  -3787.418805    -52.197542                    
V 25  -5392.229212  -1199.055051 -31297.109263      -.023762                    
P 26 -11807.479687  22297.886723   6995.083388    -52.587148                    
V 26    739.559110  -9962.990388  30955.149629      -.081578                    
P 27 -10334.424086  16170.109001 -17584.640591    208.536620                    
V 27 -22918.362135   6396.855842  18867.549025       .036403                    
P 28 -21402.808348 -11368.640510 -10698.773029      5.142871                    
V 28  -8495.382198 -11580.794958  27737.827996       .016814                    
P 29   7589.060827  18586.787733  17484.805398    164.235955                    
V 29  -7406.822198  20821.395799 -18964.974721       .026514                    
P 30  22279.280397  11707.778590   8128.449044    297.105371                    
V 30   6438.474903   9204.150467 -29366.160890       .033142                    
P 31  25178.077176  -8624.959293   1801.915211      9.601212                    
V 31   2519.542722   1433.894033 -31915.062540       .037991                    
P 32  -1865.987684 -20151.496838 -17076.575089   -133.444270                    
V 32  15998.866451  15435.630110 -19224.754418      -.084518                    
EOF
